TJS-7                   
1 49115U 21077A   26196.99802797 -.00000134  00000+0  00000+0 0  9999
2 49115   0.2833 263.9543 0002950 107.3570 182.2840  1.00269218  9833
CHINASAT 9B             
1 49125U 21080A   26196.93353444 -.00000322  00000+0  00000+0 0  9997
2 49125   0.0573 248.5585 0002157 256.7826 225.8888  1.00268325 17934
SHIJIAN-21 (SJ-21)      
1 49330U 21094A   26196.93882115 -.00000360  00000+0  00000+0 0  9994
2 49330   5.1792  61.0042 0051629 168.9694 169.6921  1.00277587  5640
SES-17                  
1 49332U 21095A   26196.90008821 -.00000283  00000+0  00000+0 0  9992
2 49332   0.0226  46.9849 0000795  69.4453  74.2370  1.00269606 18142
SYRACUSE 4A             
1 49333U 21095B   26196.49479853  .00000000  00000+0  00000+0 0  9990
2 49333   0.0256  65.0342 0001570  39.4977  52.4480  1.00269336 18236
QZS-1R (MICHIBIKI-1R)   
1 49336U 21096A   26195.57629205 -.00000304  00000+0  00000+0 0  9998
2 49336  37.5157  79.1769 0754906 272.2285 280.2291  1.00245239 17281
ZHONGXING-1D            
1 49505U 21114A   26196.93925448 -.00000347  00000+0  00000+0 0  9993
2 49505   0.0452 228.9361 0000661  26.5842 146.5479  1.00267996 17102
STPSAT-6                
1 49817U 21118A   26196.60623402 -.00000055  00000+0  00000+0 0  9998
2 49817   0.3922  85.0886 0000986 242.8647  71.9516  1.00270137 16858
EXPRESS AMU-7           
1 50001U 21123A   26196.87088141 -.00000253  00000+0  00000+0 0  9995
2 50001   0.0378 261.8181 0000445  40.3443  90.0566  1.00272461 16820
EXPRESS AMU-3           
1 50002U 21123B   26196.89791920 -.00000332  00000+0  00000+0 0  9992
2 50002   0.0080 314.8567 0000415  23.2586  21.8626  1.00271828  7312
TIANLIAN 2-02           
1 50005U 21124A   26196.80482252 -.00000025  00000+0  00000+0 0  9991
2 50005   0.8731  85.6434 0001644 162.6475 146.0465  1.00270708 16904
TURKSAT 5B              
1 50212U 21126A   26194.49803883  .00000142  00000+0  00000+0 0  9992
2 50212   0.0700 338.4739 0002495  12.5122 161.6814  1.00271883 16564
INMARSAT 6-F1           
1 50319U 21128A   26196.93006777  .00000000  00000+0  00000+0 0  9993
2 50319   0.0168  44.7509 0000070 322.3241 345.2824  1.00268461 16540
SHIYAN-12 01 (SY-12 01) 
1 50321U 21129A   26196.70695661  .00000137  00000+0  00000+0 0  9999
2 50321   3.7461  79.5252 0002608 286.1640 219.2302  1.00051422 16783
SHIYAN-12 02 (SY-12 02) 
1 50322U 21129B   26196.79223145 -.00000373  00000+0  00000+0 0  9996
2 50322   3.7454  79.5238 0003081  69.6589 180.4598  1.00476956 16781
TJS-9                   
1 50574U 21135A   26196.94064115 -.00000309  00000+0  00000+0 0  9998
2 50574   0.0484 101.1236 0002140 328.8733 339.6589  1.00272060 16710
GOES 18                 
1 51850U 22021A   26196.74378094  .00000086  00000+0  00000+0 0  9994
2 51850   0.0207 116.7756 0000422  62.7056 244.8565  1.00271110  6875
ZHONGXING-6D            
1 52255U 22038A   26194.84223098 -.00000359  00000+0  00000+0 0  9998
2 52255   0.0271 235.5038 0000603 296.7652 187.7170  1.00272740 15698
NILESAT 301             
1 52817U 22061A   26196.88655817 -.00000069  00000+0  00000+0 0  9990
2 52817   0.0456   0.7726 0003522  79.7820 165.3450  1.00269589 15029
CMS-02 (GSAT-24)        
1 52903U 22067A   26195.36151797 -.00000171  00000+0  00000+0 0  9996
2 52903   0.0509 231.1001 0000860 121.8996 152.3598  1.00269800 14883
MEASAT 3D               
1 52904U 22067B   26196.86030802 -.00000252  00000+0  00000+0 0  9996
2 52904   0.0432 314.1108 0000564  64.7489 316.0576  1.00271151 14935
SES-22                  
1 52933U 22071A   26196.67215499  .00000094  00000+0  00000+0 0  9992
2 52933   0.0177  35.3937 0000816  71.3283 289.7425  1.00271716  7805
WFOV (USA 332)          
1 52940U 22073A   26196.93717447 -.00000375  00000+0  00000+0 0  9994
2 52940   3.7826  78.1628 0001468 215.6067  96.6408  1.00266836 14657
TIANLIAN 2-03           
1 53100U 22078A   26195.13344168  .00000065  00000+0  00000+0 0  9990
2 53100   0.7376  77.4695 0000926   4.6577 268.5483  1.00273706 14814
SBIRS GEO-6 (USA 336)   
1 53355U 22092A   26196.94098781 -.00000299  00000+0  00000+0 0  9995
2 53355   3.2100 317.9670 0001679 153.2868 300.2808  1.00271164 14523
EUTELSAT KONNECT VHTS   
1 53765U 22110A   26196.88655817  .00000006  00000+0  00000+0 0  9998
2 53765   0.0578  98.9002 0002836   1.1959 155.4770  1.00269204  7123
ZHONGXING-1E            
1 53813U 22112A   26196.92963443  .00000000  00000+0  00000+0 0  9990
2 53813   0.0195 240.5967 0000831  34.1106  75.1469  1.00270621 14137
SES-20                  
1 53960U 22123A   26196.67926169 -.00000111  00000+0  00000+0 0  9995
2 53960   0.0144  64.4819 0001813  29.5686 340.9062  1.00270459 13810
SES-21                  
1 53961U 22123B   26196.64354801  .00000000  00000+0  00000+0 0  9997
2 53961   0.0394  38.5159 0000924  73.6470 282.0799  1.00268623  7490
GALAXY 33 (G-33)        
1 54026U 22128A   26196.74456094  .00000069  00000+0  00000+0 0  9998
2 54026   0.0109  51.6708 0001804  68.9157 308.0435  1.00272482 14021
GALAXY 34 (G-34)        
1 54027U 22128B   26196.67406167  .00000048  00000+0  00000+0 0  9994
2 54027   0.0124  38.4274 0001512  92.6811 276.0718  1.00276610 14190
ANGOSAT 2               
1 54033U 22131A   26196.77543619  .00000125  00000+0  00000+0 0  9996
2 54033   0.0222 113.2990 0000206 116.3358   6.1342  1.00272241 13765
