OBJECT_NAME,OBJECT_ID,EPOCH,MEAN_MOTION,ECCENTRICITY,INCLINATION,RA_OF_ASC_NODE,ARG_OF_PERICENTER,MEAN_ANOMALY,EPHEMERIS_TYPE,CLASSIFICATION_TYPE,NORAD_CAT_ID,ELEMENT_SET_NO,REV_AT_EPOCH,BSTAR,MEAN_MOTION_DOT,MEAN_MOTION_DDOT
TJS-7,2021-077A,2026-07-15T23:57:09.616608,1.00269218,.00029504,0.2833,263.9543,107.3570,182.2840,0,U,49115,999,983,0,-.134E-5,0
CHINASAT 9B,2021-080A,2026-07-15T22:24:17.375616,1.00268325,.00021577,0.0573,248.5585,256.7826,225.8888,0,U,49125,999,1793,0,-.322E-5,0
SHIJIAN-21 (SJ-21),2021-094A,2026-07-15T22:31:54.147360,1.00277587,.00516298,5.1792,61.0042,168.9694,169.6921,0,U,49330,999,564,0,-.36E-5,0
SES-17,2021-095A,2026-07-15T21:36:07.621344,1.00269606,.00007953,0.0226,46.9849,69.4453,74.2370,0,U,49332,999,1814,0,-.283E-5,0
SYRACUSE 4A,2021-095B,2026-07-15T11:52:30.592992,1.00269336,.000157,0.0256,65.0342,39.4977,52.4480,0,U,49333,999,1823,0,0,0
QZS-1R (MICHIBIKI-1R),2021-096A,2026-07-14T13:49:51.633120,1.00245239,.0754906,37.5157,79.1769,272.2285,280.2291,0,U,49336,999,1728,0,-.304E-5,0
ZHONGXING-1D,2021-114A,2026-07-15T22:32:31.587072,1.00267996,.00006612,0.0452,228.9361,26.5842,146.5479,0,U,49505,999,1710,0,-.347E-5,0
STPSAT-6,2021-118A,2026-07-15T14:32:58.619328,1.00270137,.00009863,0.3922,85.0886,242.8647,71.9516,0,U,49817,999,1685,0,-.55E-6,0
EXPRESS AMU-7,2021-123A,2026-07-15T20:54:04.153824,1.00272461,.00004458,0.0378,261.8181,40.3443,90.0566,0,U,50001,999,1682,0,-.253E-5,0
EXPRESS AMU-3,2021-123B,2026-07-15T21:33:00.218880,1.00271828,.00004156,0.0080,314.8567,23.2586,21.8626,0,U,50002,999,731,0,-.332E-5,0
TIANLIAN 2-02,2021-124A,2026-07-15T19:18:56.665728,1.00270708,.00016442,0.8731,85.6434,162.6475,146.0465,0,U,50005,999,1690,0,-.25E-6,0
TURKSAT 5B,2021-126A,2026-07-13T11:57:10.554912,1.00271883,.00024959,0.0700,338.4739,12.5122,161.6814,0,U,50212,999,1656,0,.142E-5,0
INMARSAT 6-F1,2021-128A,2026-07-15T22:19:17.855328,1.00268461,.00000704,0.0168,44.7509,322.3241,345.2824,0,U,50319,999,1654,0,0,0
SHIYAN-12 01 (SY-12 01),2021-129A,2026-07-15T16:58:01.051104,1.00051422,.0002608,3.7461,79.5252,286.1640,219.2302,0,U,50321,999,1678,0,.137E-5,0
SHIYAN-12 02 (SY-12 02),2021-129B,2026-07-15T19:00:48.797280,1.00476956,.0003081,3.7454,79.5238,69.6589,180.4598,0,U,50322,999,1678,0,-.373E-5,0
TJS-9,2021-135A,2026-07-15T22:34:31.395360,1.00272060,.00021407,0.0484,101.1236,328.8733,339.6589,0,U,50574,999,1671,0,-.309E-5,0
GOES 18,2022-021A,2026-07-15T17:51:02.673216,1.00271110,.0000422,0.0207,116.7756,62.7056,244.8565,0,U,51850,999,687,0,.86E-6,0
ZHONGXING-6D,2022-038A,2026-07-13T20:12:48.756672,1.00272740,.00006039,0.0271,235.5038,296.7652,187.7170,0,U,52255,999,1569,0,-.359E-5,0
NILESAT 301,2022-061A,2026-07-15T21:16:38.625888,1.00269589,.0003522,0.0456,0.7726,79.7820,165.3450,0,U,52817,999,1502,0,-.69E-6,0
CMS-02 (GSAT-24),2022-067A,2026-07-14T08:40:35.152608,1.00269800,.00008603,0.0509,231.1001,121.8996,152.3598,0,U,52903,999,1488,0,-.171E-5,0
MEASAT 3D,2022-067B,2026-07-15T20:38:50.612928,1.00271151,.00005646,0.0432,314.1108,64.7489,316.0576,0,U,52904,999,1493,0,-.252E-5,0
SES-22,2022-071A,2026-07-15T16:07:54.191136,1.00271716,.00008163,0.0177,35.3937,71.3283,289.7425,0,U,52933,999,780,0,.94E-6,0
WFOV (USA 332),2022-073A,2026-07-15T22:29:31.874208,1.00266836,.00014683,3.7826,78.1628,215.6067,96.6408,0,U,52940,999,1465,0,-.375E-5,0
TIANLIAN 2-03,2022-078A,2026-07-14T03:12:09.361152,1.00273706,.00009262,0.7376,77.4695,4.6577,268.5483,0,U,53100,999,1481,0,.65E-6,0
SBIRS GEO-6 (USA 336),2022-092A,2026-07-15T22:35:01.346784,1.00271164,.00016794,3.2100,317.9670,153.2868,300.2808,0,U,53355,999,1452,0,-.299E-5,0
EUTELSAT KONNECT VHTS,2022-110A,2026-07-15T21:16:38.625888,1.00269204,.00028369,0.0578,98.9002,1.1959,155.4770,0,U,53765,999,712,0,.6E-7,0
ZHONGXING-1E,2022-112A,2026-07-15T22:18:40.414752,1.00270621,.00008313,0.0195,240.5967,34.1106,75.1469,0,U,53813,999,1413,0,0,0
SES-20,2022-123A,2026-07-15T16:18:08.210016,1.00270459,.00018137,0.0144,64.4819,29.5686,340.9062,0,U,53960,999,1381,0,-.111E-5,0
SES-21,2022-123B,2026-07-15T15:26:42.548064,1.00268623,.00009248,0.0394,38.5159,73.6470,282.0799,0,U,53961,999,749,0,0,0
GALAXY 33 (G-33),2022-128A,2026-07-15T17:52:10.065216,1.00272482,.00018048,0.0109,51.6708,68.9157,308.0435,0,U,54026,999,1402,0,.69E-6,0
GALAXY 34 (G-34),2022-128B,2026-07-15T16:10:38.928288,1.00276610,.00015126,0.0124,38.4274,92.6811,276.0718,0,U,54027,999,1419,0,.48E-6,0
ANGOSAT 2,2022-131A,2026-07-15T18:36:37.686816,1.00272241,.00002062,0.0222,113.2990,116.3358,6.1342,0,U,54033,999,1376,0,.125E-5,0
